KINEIS-1B               
1 60079U 24114A   26194.27272073  .00000397  00000+0  58513-4 0  9990
2 60079  97.9828 218.3336 0003093  42.7532 317.3920 14.80665385111263
KINEIS-1C               
1 60081U 24114C   26194.30635612  .00000385  00000+0  57028-4 0  9996
2 60081  97.9841 218.2220 0002565  97.1607 262.9897 14.80667296111241
KINEIS-1D               
1 60082U 24114D   26194.27329837  .00000334  00000+0  55387-4 0  9992
2 60082  97.9878 214.1241 0002935 101.3020 258.8520 14.76361180110972
KINEIS-1E               
1 60083U 24114E   26194.32420787  .00000469  00000+0  67706-4 0  9992
2 60083  97.8943 217.3298 0004073 113.5554 246.6086 14.80692349111257
KINEIS-1A               
1 60084U 24114F   26194.29005691  .00000427  00000+0  62238-4 0  9991
2 60084  97.8917 217.3906 0005480  67.1028 293.0762 14.80680762111251
KINEIS-3C               
1 61220U 24172A   26193.76202116  .00000811  00000+0  13618-3 0  9994
2 61220  98.0442 283.3896 0002656  85.9789 274.1722 14.72284795 96834
KINEIS-3D               
1 61221U 24172B   26193.82325195  .00000976  00000+0  16244-3 0  9995
2 61221  98.0433 283.4609 0002486  86.2463 273.9028 14.72283068 97123
KINEIS-3E               
1 61222U 24172C   26193.80615122  .00000954  00000+0  15890-3 0  9998
2 61222  98.0413 283.4262 0002220  88.9989 271.1473 14.72276752 97121
KINEIS-3A               
1 61223U 24172D   26194.06150061  .00000960  00000+0  15974-3 0  9994
2 61223  98.0425 283.7762 0002312  46.4895 313.6504 14.72305973 96584
KINEIS-3B               
1 61224U 24172E   26194.24799396  .00000935  00000+0  15580-3 0  9990
2 61224  98.0418 283.9832 0001760  33.0362 327.0955 14.72292360 97185
KINEIS-5C               
1 62081U 24219A   26194.29318219  .00000323  00000+0  58692-4 0  9993
2 62081  97.9064 352.4237 0003998 178.7865 181.3353 14.72313267 87590
KINEIS-5D               
1 62082U 24219B   26194.31992586  .00000476  00000+0  82618-4 0  9996
2 62082  97.9177 352.5144 0005128 173.0842 187.0437 14.72491647 87601
KINEIS-5E               
1 62083U 24219C   26194.33750485  .00000299  00000+0  55013-4 0  9991
2 62083  97.9022 352.5620 0006623 170.0806 190.0534 14.72297927 87616
KINEIS-5B               
1 62085U 24219E   26194.30886786  .00000547  00000+0  82333-4 0  9995
2 62085  98.0088 357.9951 0002364 149.0814 211.0536 14.78383222 87864
KINEIS-2C               
1 62929U 25028B   26194.12711001  .00000819  00000+0  13416-3 0  9995
2 62929  98.1231 248.5484 0004092 164.9439 195.1891 14.73425786 76431
