{"fetched_at":"2026-07-13T18:17:03.911Z","source":"https://celestrak.org/NORAD/elements/gp.php?NAME=KINEIS&FORMAT=JSON","constellation":"kineis","records":[{"OBJECT_NAME":"KINEIS-1B","OBJECT_ID":"2024-114A","EPOCH":"2026-07-13T06:32:43.071072","CLASSIFICATION_TYPE":"U","MEAN_MOTION":14.80665385,"ECCENTRICITY":0.00030936,"INCLINATION":97.9828,"RA_OF_ASC_NODE":218.3336,"ARG_OF_PERICENTER":42.7532,"MEAN_ANOMALY":317.392,"EPHEMERIS_TYPE":0,"NORAD_CAT_ID":60079,"ELEMENT_SET_NO":999,"REV_AT_EPOCH":11126,"BSTAR":0.000058513083,"MEAN_MOTION_DOT":0.00000397,"MEAN_MOTION_DDOT":0},{"OBJECT_NAME":"KINEIS-1C","OBJECT_ID":"2024-114C","EPOCH":"2026-07-13T07:21:09.168768","CLASSIFICATION_TYPE":"U","MEAN_MOTION":14.80667296,"ECCENTRICITY":0.00025657,"INCLINATION":97.9841,"RA_OF_ASC_NODE":218.222,"ARG_OF_PERICENTER":97.1607,"MEAN_ANOMALY":262.9897,"EPHEMERIS_TYPE":0,"NORAD_CAT_ID":60081,"ELEMENT_SET_NO":999,"REV_AT_EPOCH":11124,"BSTAR":0.000057027869,"MEAN_MOTION_DOT":0.00000385,"MEAN_MOTION_DDOT":0},{"OBJECT_NAME":"KINEIS-1D","OBJECT_ID":"2024-114D","EPOCH":"2026-07-13T06:33:32.979168","CLASSIFICATION_TYPE":"U","MEAN_MOTION":14.7636118,"ECCENTRICITY":0.00029352,"INCLINATION":97.9878,"RA_OF_ASC_NODE":214.1241,"ARG_OF_PERICENTER":101.302,"MEAN_ANOMALY":258.852,"EPHEMERIS_TYPE":0,"NORAD_CAT_ID":60082,"ELEMENT_SET_NO":999,"REV_AT_EPOCH":11097,"BSTAR":0.000055386841,"MEAN_MOTION_DOT":0.00000334,"MEAN_MOTION_DDOT":0},{"OBJECT_NAME":"KINEIS-1E","OBJECT_ID":"2024-114E","EPOCH":"2026-07-13T07:46:51.559968","CLASSIFICATION_TYPE":"U","MEAN_MOTION":14.80692349,"ECCENTRICITY":0.00040738,"INCLINATION":97.8943,"RA_OF_ASC_NODE":217.3298,"ARG_OF_PERICENTER":113.5554,"MEAN_ANOMALY":246.6086,"EPHEMERIS_TYPE":0,"NORAD_CAT_ID":60083,"ELEMENT_SET_NO":999,"REV_AT_EPOCH":11125,"BSTAR":0.000067705938,"MEAN_MOTION_DOT":0.00000469,"MEAN_MOTION_DDOT":0},{"OBJECT_NAME":"KINEIS-1A","OBJECT_ID":"2024-114F","EPOCH":"2026-07-13T06:57:40.917024","CLASSIFICATION_TYPE":"U","MEAN_MOTION":14.80680762,"ECCENTRICITY":0.00054807,"INCLINATION":97.8917,"RA_OF_ASC_NODE":217.3906,"ARG_OF_PERICENTER":67.1028,"MEAN_ANOMALY":293.0762,"EPHEMERIS_TYPE":0,"NORAD_CAT_ID":60084,"ELEMENT_SET_NO":999,"REV_AT_EPOCH":11125,"BSTAR":0.000062237975,"MEAN_MOTION_DOT":0.00000427,"MEAN_MOTION_DDOT":0},{"OBJECT_NAME":"KINEIS-3C","OBJECT_ID":"2024-172A","EPOCH":"2026-07-12T18:17:18.628224","CLASSIFICATION_TYPE":"U","MEAN_MOTION":14.72284795,"ECCENTRICITY":0.00026565,"INCLINATION":98.0442,"RA_OF_ASC_NODE":283.3896,"ARG_OF_PERICENTER":85.9789,"MEAN_ANOMALY":274.1722,"EPHEMERIS_TYPE":0,"NORAD_CAT_ID":61220,"ELEMENT_SET_NO":999,"REV_AT_EPOCH":9683,"BSTAR":0.00013618008,"MEAN_MOTION_DOT":0.00000811,"MEAN_MOTION_DDOT":0},{"OBJECT_NAME":"KINEIS-3D","OBJECT_ID":"2024-172B","EPOCH":"2026-07-12T19:45:28.968480","CLASSIFICATION_TYPE":"U","MEAN_MOTION":14.72283068,"ECCENTRICITY":0.00024869,"INCLINATION":98.0433,"RA_OF_ASC_NODE":283.4609,"ARG_OF_PERICENTER":86.2463,"MEAN_ANOMALY":273.9028,"EPHEMERIS_TYPE":0,"NORAD_CAT_ID":61221,"ELEMENT_SET_NO":999,"REV_AT_EPOCH":9712,"BSTAR":0.00016244402,"MEAN_MOTION_DOT":0.00000976,"MEAN_MOTION_DDOT":0},{"OBJECT_NAME":"KINEIS-3E","OBJECT_ID":"2024-172C","EPOCH":"2026-07-12T19:20:51.465408","CLASSIFICATION_TYPE":"U","MEAN_MOTION":14.72276752,"ECCENTRICITY":0.00022205,"INCLINATION":98.0413,"RA_OF_ASC_NODE":283.4262,"ARG_OF_PERICENTER":88.9989,"MEAN_ANOMALY":271.1473,"EPHEMERIS_TYPE":0,"NORAD_CAT_ID":61222,"ELEMENT_SET_NO":999,"REV_AT_EPOCH":9712,"BSTAR":0.00015890032,"MEAN_MOTION_DOT":0.00000954,"MEAN_MOTION_DDOT":0},{"OBJECT_NAME":"KINEIS-3A","OBJECT_ID":"2024-172D","EPOCH":"2026-07-13T01:28:33.652704","CLASSIFICATION_TYPE":"U","MEAN_MOTION":14.72305973,"ECCENTRICITY":0.00023122,"INCLINATION":98.0425,"RA_OF_ASC_NODE":283.7762,"ARG_OF_PERICENTER":46.4895,"MEAN_ANOMALY":313.6504,"EPHEMERIS_TYPE":0,"NORAD_CAT_ID":61223,"ELEMENT_SET_NO":999,"REV_AT_EPOCH":9658,"BSTAR":0.00015974067,"MEAN_MOTION_DOT":0.0000096,"MEAN_MOTION_DDOT":0},{"OBJECT_NAME":"KINEIS-3B","OBJECT_ID":"2024-172E","EPOCH":"2026-07-13T05:57:06.678144","CLASSIFICATION_TYPE":"U","MEAN_MOTION":14.7229236,"ECCENTRICITY":0.00017607,"INCLINATION":98.0418,"RA_OF_ASC_NODE":283.9832,"ARG_OF_PERICENTER":33.0362,"MEAN_ANOMALY":327.0955,"EPHEMERIS_TYPE":0,"NORAD_CAT_ID":61224,"ELEMENT_SET_NO":999,"REV_AT_EPOCH":9718,"BSTAR":0.0001557967,"MEAN_MOTION_DOT":0.00000935,"MEAN_MOTION_DDOT":0},{"OBJECT_NAME":"KINEIS-5C","OBJECT_ID":"2024-219A","EPOCH":"2026-07-13T07:02:10.941216","CLASSIFICATION_TYPE":"U","MEAN_MOTION":14.72313267,"ECCENTRICITY":0.00039981,"INCLINATION":97.9064,"RA_OF_ASC_NODE":352.4237,"ARG_OF_PERICENTER":178.7865,"MEAN_ANOMALY":181.3353,"EPHEMERIS_TYPE":0,"NORAD_CAT_ID":62081,"ELEMENT_SET_NO":999,"REV_AT_EPOCH":8759,"BSTAR":0.000058692247,"MEAN_MOTION_DOT":0.00000323,"MEAN_MOTION_DDOT":0},{"OBJECT_NAME":"KINEIS-5D","OBJECT_ID":"2024-219B","EPOCH":"2026-07-13T07:40:41.594304","CLASSIFICATION_TYPE":"U","MEAN_MOTION":14.72491647,"ECCENTRICITY":0.0005128,"INCLINATION":97.9177,"RA_OF_ASC_NODE":352.5144,"ARG_OF_PERICENTER":173.0842,"MEAN_ANOMALY":187.0437,"EPHEMERIS_TYPE":0,"NORAD_CAT_ID":62082,"ELEMENT_SET_NO":999,"REV_AT_EPOCH":8760,"BSTAR":0.000082618063,"MEAN_MOTION_DOT":0.00000476,"MEAN_MOTION_DDOT":0},{"OBJECT_NAME":"KINEIS-5E","OBJECT_ID":"2024-219C","EPOCH":"2026-07-13T08:06:00.419040","CLASSIFICATION_TYPE":"U","MEAN_MOTION":14.72297927,"ECCENTRICITY":0.00066232,"INCLINATION":97.9022,"RA_OF_ASC_NODE":352.562,"ARG_OF_PERICENTER":170.0806,"MEAN_ANOMALY":190.0534,"EPHEMERIS_TYPE":0,"NORAD_CAT_ID":62083,"ELEMENT_SET_NO":999,"REV_AT_EPOCH":8761,"BSTAR":0.000055012833,"MEAN_MOTION_DOT":0.00000299,"MEAN_MOTION_DDOT":0},{"OBJECT_NAME":"KINEIS-5B","OBJECT_ID":"2024-219E","EPOCH":"2026-07-13T07:24:46.183104","CLASSIFICATION_TYPE":"U","MEAN_MOTION":14.78383222,"ECCENTRICITY":0.00023644,"INCLINATION":98.0088,"RA_OF_ASC_NODE":357.9951,"ARG_OF_PERICENTER":149.0814,"MEAN_ANOMALY":211.0536,"EPHEMERIS_TYPE":0,"NORAD_CAT_ID":62085,"ELEMENT_SET_NO":999,"REV_AT_EPOCH":8786,"BSTAR":0.000082333191,"MEAN_MOTION_DOT":0.00000547,"MEAN_MOTION_DDOT":0},{"OBJECT_NAME":"KINEIS-2C","OBJECT_ID":"2025-028B","EPOCH":"2026-07-13T03:03:02.304864","CLASSIFICATION_TYPE":"U","MEAN_MOTION":14.73425786,"ECCENTRICITY":0.00040921,"INCLINATION":98.1231,"RA_OF_ASC_NODE":248.5484,"ARG_OF_PERICENTER":164.9439,"MEAN_ANOMALY":195.1891,"EPHEMERIS_TYPE":0,"NORAD_CAT_ID":62929,"ELEMENT_SET_NO":999,"REV_AT_EPOCH":7643,"BSTAR":0.00013416363,"MEAN_MOTION_DOT":0.00000819,"MEAN_MOTION_DDOT":0}]}
